DMSP 5D-3 F16 (USA 172) 
1 28054U 03048A   26087.86468750  .00000158  00000+0  10637-3 0  9994
2 28054  98.9969 111.1353 0007375  23.5093 327.9883 14.14469451158126
METEOSAT-9 (MSG-2)      
1 28912U 05049B   26087.55372006  .00000111  00000+0  00000+0 0  9992
2 28912   9.1814  54.9434 0000189 125.5968 250.3933  1.00272852  6198
DMSP 5D-3 F17 (USA 191) 
1 29522U 06050A   26087.84110429  .00000201  00000+0  12616-3 0  9994
2 29522  98.7409  96.0478 0008949 287.7449  72.2747 14.14972443  1069
FENGYUN 3A              
1 32958U 08026A   26087.83654698  .00000100  00000+0  68061-4 0  9990
2 32958  98.6822  30.2008 0008861   6.9013 353.2283 14.19552128924008
GOES 14                 
1 35491U 09033A   26087.79569447  .00000053  00000+0  00000+0 0  9997
2 35491   1.4830  84.0229 0001717 277.8076 297.9517  1.00108649  5787
DMSP 5D-3 F18 (USA 210) 
1 35951U 09057A   26087.87716164  .00000293  00000+0  17482-3 0  9995
2 35951  98.8989  68.8459 0012039 116.3880 243.8531 14.14848205848236
EWS-G2 (GOES 15)        
1 36411U 10008A   26087.66997493  .00000003  00000+0  00000+0 0  9991
2 36411   1.0678  84.4611 0002661  19.3681  26.7430  1.00270308 58833
COMS 1                  
1 36744U 10032A   26087.85532473 -.00000360  00000+0  00000+0 0  9998
2 36744   4.5984  76.4793 0001054 282.4878 263.3521  1.00272717 50285
FENGYUN 3B              
1 37214U 10059A   26087.83090181  .00000185  00000+0  11903-3 0  9995
2 37214  98.9732 133.4706 0022949  56.1949  32.7634 14.14823031796061
SUOMI NPP               
1 37849U 11061A   26087.84493700  .00000085  00000+0  61326-4 0  9992
2 37849  98.7893  29.2975 0001668 159.3400 200.7844 14.19498523747047
METEOSAT-10 (MSG-3)     
1 38552U 12035B   26087.75868764 -.00000023  00000+0  00000+0 0  9992
2 38552   4.4824  61.3529 0002458 284.8080 113.1895  1.00271341 50059
METOP-B                 
1 38771U 12049A   26087.80249142  .00000114  00000+0  71964-4 0  9991
2 38771  98.6600 140.8723 0002039 189.9198 170.1940 14.21424433701841
INSAT-3D                
1 39216U 13038B   26087.85558473 -.00000357  00000+0  00000+0 0  9998
2 39216   1.7191  83.5497 0001584 246.2248 294.0421  1.00268978 46276
FENGYUN 3C              
1 39260U 13052A   26087.89936289  .00000134  00000+0  89596-4 0  9996
2 39260  98.4924  65.4900 0013516 253.5478 106.4212 14.15734921647204
METEOR-M 2              
1 40069U 14037A   26087.90024189  .00000118  00000+0  73188-4 0  9990
2 40069  98.5055  66.5110 0004552 272.0285  88.0372 14.21436668607916
HIMAWARI-8              
1 40267U 14060A   26087.85783808 -.00000295  00000+0  00000+0 0  9995
2 40267   0.0222 111.0728 0000780 226.3757 298.2974  1.00270466 41950
FENGYUN 2G              
1 40367U 14090A   26087.84969138 -.00000315  00000+0  00000+0 0  9993
2 40367   5.4364  73.7716 0001787 148.1043   9.7239  1.00263574 41192
METEOSAT-11 (MSG-4)     
1 40732U 15034A   26087.83181221  .00000045  00000+0  00000+0 0  9995
2 40732   2.9995  71.5348 0001780 284.8799 138.5060  1.00273826  6416
ELEKTRO-L 2             
1 41105U 15074A   26087.75582763 -.00000132  00000+0  00000+0 0  9999
2 41105   6.4928  71.4977 0002867 245.3679 126.9051  1.00271736 37704
INSAT-3DR               
1 41752U 16054A   26087.84457802 -.00000096  00000+0  00000+0 0  9990
2 41752   0.1117  87.6682 0012718 195.0763 281.5337  1.00271743 35011
HIMAWARI-9              
1 41836U 16064A   26087.85783808 -.00000294  00000+0  00000+0 0  9993
2 41836   0.0279 132.5012 0001029 232.4064 270.9438  1.00272938 34405
GOES 16                 
1 41866U 16071A   26087.66664723 -.00000110  00000+0  00000+0 0  9994
2 41866   0.1579  85.4996 0002188 233.0864   2.7816  1.00271531 34297
FENGYUN 4A              
1 41882U 16077A   26087.88100391 -.00000375  00000+0  00000+0 0  9991
2 41882   2.1191  81.0810 0007479 136.1062  49.9295  1.00266130 34120
CYGFM05                 
1 41884U 16078A   26087.66815242  .00028540  00000+0  44065-3 0  9994
2 41884  34.9579  72.3676 0005634 119.7594 240.3690 15.53096635516211
CYGFM04                 
1 41885U 16078B   26087.22407516  .00033593  00000+0  44885-3 0  9992
2 41885  34.9339  46.6609 0005441 165.0724 195.0161 15.56993058516353
CYGFM02                 
1 41886U 16078C   26087.29029797  .00037408  00000+0  46051-3 0  9997
2 41886  34.9425  42.7135 0006399 162.9543 197.1398 15.59139207516513
CYGFM01                 
1 41887U 16078D   26087.36781122  .00028284  00000+0  42817-3 0  9991
2 41887  34.9408  76.0121 0005192 107.1152 253.0140 15.53642207516113
CYGFM08                 
1 41888U 16078E   26087.32413529  .00031465  00000+0  43945-3 0  9999
2 41888  34.9445  57.7930 0007015 140.4458 219.6779 15.55803518516352
CYGFM07                 
1 41890U 16078G   26087.28779988  .00031562  00000+0  43970-3 0  9997
2 41890  34.9463  46.4366 0005925 163.6705 196.4211 15.55879251516375
CYGFM03                 
1 41891U 16078H   26087.57964534  .00032707  00000+0  45536-3 0  9995
2 41891  34.9418  46.4736 0004895 153.9080 206.1891 15.55897266516391
FENGYUN 3D              
1 43010U 17072A   26087.87606258 -.00000200  00000+0 -72569-4 0  9996
2 43010  99.0060  60.8775 0000601 314.7195  45.3932 14.19720061433595
NOAA 20 (JPSS-1)        
1 43013U 17073A   26087.78887664  .00000083  00000+0  60112-4 0  9990
2 43013  98.7713  27.9887 0001884 111.8812 248.2565 14.19540945433062
GOES 17                 
1 43226U 18022A   26087.59835360 -.00000201  00000+0  00000+0 0  9994
2 43226   0.7312  86.9387 0001538 236.4458 348.5274  1.00271175 29617
FENGYUN 2H              
1 43491U 18050A   26087.87475112 -.00000144  00000+0  00000+0 0  9991
2 43491   2.8238  80.0249 0001697 172.9082 327.3229  1.00270326 28639
METOP-C                 
1 43689U 18087A   26087.82610303  .00000111  00000+0  70378-4 0  9991
2 43689  98.6725 148.8706 0001967  73.7162 286.4232 14.21503119383415
GEO-KOMPSAT-2A          
1 43823U 18100A   26087.85541139 -.00000364  00000+0  00000+0 0  9991
2 43823   0.0542  35.8753 0001640  15.6232 210.9778  1.00270275 26820
METEOR-M2 2             
1 44387U 19038A   26087.88240126 -.00000047  00000+0 -45061-6 0  9995
2 44387  98.9111  74.0019 0000290 197.7540 162.3628 14.24340576349866
ARKTIKA-M 1             
1 47719U 21016A   26086.24697042 -.00000098  00000+0  00000+0 0  9990
2 47719  63.2179  69.3783 7253959 269.5617  15.0995  2.00616454 37142
FENGYUN 3E              
1 49008U 21062A   26087.86917993 -.00000306  00000+0 -12324-3 0  9992
2 49008  98.7520  92.1696 0001360   4.2902 355.8286 14.19894849245188
GOES 18                 
1 51850U 22021A   26087.73156084  .00000077  00000+0  00000+0 0  9995
2 51850   0.0455  18.7374 0000438  36.9621 256.7912  1.00272342  5780
NOAA 21 (JPSS-2)        
1 54234U 22150A   26087.82336968  .00000063  00000+0  50572-4 0  9997
2 54234  98.7575  27.8725 0002758  73.1993 286.9486 14.19557026175147
METEOSAT-12 (MTG-I1)    
1 54743U 22170C   26087.82990554 -.00000026  00000+0  00000+0 0  9997
2 54743   0.7315  25.4287 0001869 290.1317 169.0870  1.00272753 12175
TIANMU-1 03             
1 55973U 23039A   26087.86174063  .00019203  00000+0  41044-3 0  9994
2 55973  97.5196 258.8412 0003411  48.1637 311.9902 15.44876482168421
TIANMU-1 04             
1 55974U 23039B   26087.81520701  .00022684  00000+0  47710-3 0  9997
2 55974  97.5128 257.9481 0003887  41.1261 319.0280 15.45314338168422
TIANMU-1 05             
1 55975U 23039C   26087.83907469  .00019900  00000+0  42609-3 0  9999
2 55975  97.5174 258.4621 0003636  67.8486 292.3148 15.44815853168403
TIANMU-1 06             
1 55976U 23039D   26087.81469322  .00020499  00000+0  43124-3 0  9997
2 55976  97.5185 258.9949 0003807  60.8594 299.3035 15.45328757168424
FENGYUN 3G              
1 56232U 23055A   26087.87826326  .00036447  00000+0  57721-3 0  9996
2 56232  49.9934  40.1330 0004773  15.0166 345.0942 15.53005152167524
METEOR-M2 3             
1 57166U 23091A   26087.85877047  .00000005  00000+0  21073-4 0  9990
2 57166  98.6172 144.4488 0004777  55.4939 304.6691 14.24039558143089
TIANMU-1 07             
1 57399U 23101A   26087.82330149  .00008372  00000+0  29746-3 0  9993
2 57399  97.2692 140.3427 0004655  95.4170 264.7602 15.29250575149368
TIANMU-1 08             
1 57400U 23101B   26085.76300744  .00000258  00000+0  11605-4 0  9996
2 57400  97.2683 138.1078 0005815  81.6822 278.5077 15.29307245149049
TIANMU-1 09             
1 57401U 23101C   26087.84015353  .00008260  00000+0  29335-3 0  9996
2 57401  97.2639 139.5996 0005115  94.3437 265.8388 15.29267689149367
TIANMU-1 10             
1 57402U 23101D   26087.87316325  .00008412  00000+0  29806-3 0  9995
2 57402  97.2717 140.5975 0006488  83.7343 276.4637 15.29330179149366
FENGYUN 3F              
1 57490U 23111A   26087.85477427  .00000071  00000+0  53679-4 0  9991
2 57490  98.6888 159.3427 0000899  80.7713 279.3565 14.19923826137460
ARKTIKA-M 2             
1 58584U 23198A   26082.52027795  .00000173  00000+0  00000+0 0  9997
2 58584  63.2220 163.8934 6881218 267.7008  18.8555  2.00606565 16600
TIANMU-1 11             
1 58645U 23205A   26087.82214304  .00007025  00000+0  27477-3 0  9990
2 58645  97.3526 110.6636 0007141 292.4356  67.6126 15.26128454125261
TIANMU-1 12             
1 58646U 23205B   26087.85544779  .00007163  00000+0  28073-3 0  9992
2 58646  97.3514 110.4702 0005348 270.5832  89.4794 15.26063059125255
TIANMU-1 13             
1 58647U 23205C   26087.82013797  .00007147  00000+0  27968-3 0  9995
2 58647  97.3542 110.6829 0005831 246.0352 114.0277 15.26112681125247
TIANMU-1 14             
1 58648U 23205D   26087.80502037  .00007463  00000+0  29207-3 0  9993
2 58648  97.3477 109.9196 0006493 252.5121 107.5408 15.26087365125247
TIANMU-1 19             
1 58660U 23208A   26087.82675539  .00011609  00000+0  39935-3 0  9996
2 58660  97.4399 203.8414 0004152 227.6938 132.3951 15.30225334125032
TIANMU-1 20             
1 58661U 23208B   26087.86159130  .00011867  00000+0  39335-3 0  9995
2 58661  97.4340 204.4293 0006092 242.6304 117.4318 15.31412609125125
TIANMU-1 21             
1 58662U 23208C   26087.83457685  .00013447  00000+0  41739-3 0  9996
2 58662  97.4395 206.7505 0006146 236.2439 123.8218 15.33488754125244
TIANMU-1 22             
1 58663U 23208D   26087.84935586  .00010599  00000+0  36956-3 0  9999
2 58663  97.4395 203.8623 0002441 255.3784 104.7186 15.29813326125045
TIANMU-1 15             
1 58700U 24004A   26087.86820348  .00007749  00000+0  30315-3 0  9993
2 58700  97.4679 274.0854 0005632 271.1295  88.9298 15.26103297123520
TIANMU-1 16             
1 58701U 24004B   26087.85124723  .00007824  00000+0  30574-3 0  9998
2 58701  97.4622 273.3780 0004063 275.1307  84.9467 15.26140030123524
TIANMU-1 17             
1 58702U 24004C   26087.83313916  .00007437  00000+0  29049-3 0  9996
2 58702  97.4653 273.8225 0003274 276.4712  83.6153 15.26174612123515
TIANMU-1 18             
1 58703U 24004D   26087.81901400  .00007272  00000+0  28464-3 0  9993
2 58703  97.4669 274.0228 0002645 275.1305  84.9631 15.26114170123512
INSAT-3DS               
1 58990U 24033A   26087.84622469 -.00000175  00000+0  00000+0 0  9999
2 58990   0.0166 129.4382 0002056 236.6330 206.8975  1.00271581 46261
METEOR-M2 4             
1 59051U 24039A   26087.85264132  .00000035  00000+0  35191-4 0  9992
2 59051  98.6938  48.1946 0007939  48.1841 312.0014 14.22420155107848
GOES 19                 
1 60133U 24119A   26087.60112693 -.00000268  00000+0  00000+0 0  9996
2 60133   0.0476  15.5541 0000818  25.4447 286.2025  1.00270005  6158
FENGYUN 3H              
1 65815U 25219A   26087.85084633  .00000066  00000+0  51294-4 0  9990
2 65815  98.6709  30.2079 0000848  61.0170 299.1091 14.19937449 25988
